{"type": "FeatureCollection", "features": [ {"type": "Feature", "properties": {"norad_id": 58662, "name": "TIANMU-1 21", "group": "weather", "lat": -46.85027139172115, "lon": -98.07204839076316, "alt_km": 478.02029088251766, "timestamp": "2025-12-02T13:52:16.919623+00:00", "meta": {"OBJECT_NAME": "TIANMU-1 21", "OBJECT_ID": "2023-208C", "EPOCH": "2025-12-02T08:10:33.436128", "MEAN_MOTION": 15.31199954, "ECCENTRICITY": 0.00060195, "INCLINATION": 97.4373, "RA_OF_ASC_NODE": 89.7004, "ARG_OF_PERICENTER": 303.4525, "MEAN_ANOMALY": 56.614, "EPHEMERIS_TYPE": 0, "CLASSIFICATION_TYPE": "U", "NORAD_CAT_ID": 58662, "ELEMENT_SET_NO": 999, "REV_AT_EPOCH": 10740, "BSTAR": 0.00045705691, "MEAN_MOTION_DOT": 0.00013713, "MEAN_MOTION_DDOT": 0}, "tle": {"line1": "1 58662U 23208C   25336.34066477  .00013713  00000+0  45706-3 0  9997", "line2": "2 58662  97.4373  89.7004 0006019 303.4525  56.6140 15.31199954107409"}}, "geometry": {"type": "Point", "coordinates": [-98.07204839076316, -46.85027139172115]}}, {"type": "Feature", "properties": {"norad_id": 58663, "name": "TIANMU-1 22", "group": "weather", "lat": -66.4101845413566, "lon": 105.10977915922537, "alt_km": 489.45188576076816, "timestamp": "2025-12-02T13:52:16.919633+00:00", "meta": {"OBJECT_NAME": "TIANMU-1 22", "OBJECT_ID": "2023-208D", "EPOCH": "2025-12-02T06:18:16.670016", "MEAN_MOTION": 15.27321542, "ECCENTRICITY": 0.00031558, "INCLINATION": 97.4383, "RA_OF_ASC_NODE": 87.3866, "ARG_OF_PERICENTER": 335.339, "MEAN_ANOMALY": 24.7697, "EPHEMERIS_TYPE": 0, "CLASSIFICATION_TYPE": "U", "NORAD_CAT_ID": 58663, "ELEMENT_SET_NO": 999, "REV_AT_EPOCH": 10723, "BSTAR": 0.00041791594, "MEAN_MOTION_DOT": 0.00011116, "MEAN_MOTION_DDOT": 0}, "tle": {"line1": "1 58663U 23208D   25336.26269294  .00011116  00000+0  41792-3 0  9997", "line2": "2 58663  97.4383  87.3866 0003155 335.3390  24.7697 15.27321542107232"}}, "geometry": {"type": "Point", "coordinates": [105.10977915922537, -66.4101845413566]}}, {"type": "Feature", "properties": {"norad_id": 58700, "name": "TIANMU-1 15", "group": "weather", "lat": 12.084758816910321, "lon": -20.307450630258973, "alt_km": 497.78122019645525, "timestamp": "2025-12-02T13:52:16.919642+00:00", "meta": {"OBJECT_NAME": "TIANMU-1 15", "OBJECT_ID": "2024-004A", "EPOCH": "2025-12-02T06:50:11.775264", "MEAN_MOTION": 15.24457275, "ECCENTRICITY": 0.00058741, "INCLINATION": 97.4628, "RA_OF_ASC_NODE": 157.7924, "ARG_OF_PERICENTER": 340.144, "MEAN_ANOMALY": 19.9568, "EPHEMERIS_TYPE": 0, "CLASSIFICATION_TYPE": "U", "NORAD_CAT_ID": 58700, "ELEMENT_SET_NO": 999, "REV_AT_EPOCH": 10575, "BSTAR": 0.00033488257, "MEAN_MOTION_DOT": 8.156e-05, "MEAN_MOTION_DDOT": 0}, "tle": {"line1": "1 58700U 24004A   25336.28485851  .00008156  00000+0  33488-3 0  9998", "line2": "2 58700  97.4628 157.7924 0005874 340.1440  19.9568 15.24457275105751"}}, "geometry": {"type": "Point", "coordinates": [-20.307450630258973, 12.084758816910321]}}, {"type": "Feature", "properties": {"norad_id": 58701, "name": "TIANMU-1 16", "group": "weather", "lat": -75.98055184449998, "lon": -54.156010965779934, "alt_km": 500.0320156388352, "timestamp": "2025-12-02T13:52:16.919652+00:00", "meta": {"OBJECT_NAME": "TIANMU-1 16", "OBJECT_ID": "2024-004B", "EPOCH": "2025-11-28T17:21:14.562144", "MEAN_MOTION": 15.24146454, "ECCENTRICITY": 0.00054689, "INCLINATION": 97.457, "RA_OF_ASC_NODE": 153.6495, "ARG_OF_PERICENTER": 351.9748, "MEAN_ANOMALY": 8.1401, "EPHEMERIS_TYPE": 0, "CLASSIFICATION_TYPE": "U", "NORAD_CAT_ID": 58701, "ELEMENT_SET_NO": 999, "REV_AT_EPOCH": 10521, "BSTAR": 5.4123761e-05, "MEAN_MOTION_DOT": 1.245e-05, "MEAN_MOTION_DDOT": 0}, "tle": {"line1": "1 58701U 24004B   25332.72308521  .00001245  00000+0  54124-4 0  9995", "line2": "2 58701  97.4570 153.6495 0005468 351.9748   8.1401 15.24146454105217"}}, "geometry": {"type": "Point", "coordinates": [-54.156010965779934, -75.98055184449998]}}, {"type": "Feature", "properties": {"norad_id": 58702, "name": "TIANMU-1 17", "group": "weather", "lat": -18.532816442576145, "lon": 160.40730866722816, "alt_km": 495.1241804431993, "timestamp": "2025-12-02T13:52:16.919662+00:00", "meta": {"OBJECT_NAME": "TIANMU-1 17", "OBJECT_ID": "2024-004C", "EPOCH": "2025-12-02T07:39:03.444768", "MEAN_MOTION": 15.24256167, "ECCENTRICITY": 0.00044113, "INCLINATION": 97.4601, "RA_OF_ASC_NODE": 157.6317, "ARG_OF_PERICENTER": 342.9888, "MEAN_ANOMALY": 17.12, "EPHEMERIS_TYPE": 0, "CLASSIFICATION_TYPE": "U", "NORAD_CAT_ID": 58702, "ELEMENT_SET_NO": 999, "REV_AT_EPOCH": 10575, "BSTAR": 0.00035749813, "MEAN_MOTION_DOT": 8.658e-05, "MEAN_MOTION_DDOT": 0}, "tle": {"line1": "1 58702U 24004C   25336.31878987  .00008658  00000+0  35750-3 0  9991", "line2": "2 58702  97.4601 157.6317 0004411 342.9888  17.1200 15.24256167105751"}}, "geometry": {"type": "Point", "coordinates": [160.40730866722816, -18.532816442576145]}}, {"type": "Feature", "properties": {"norad_id": 58703, "name": "TIANMU-1 18", "group": "weather", "lat": 71.77028216142193, "lon": 134.6330838826083, "alt_km": 486.11177758909434, "timestamp": "2025-12-02T13:52:16.919675+00:00", "meta": {"OBJECT_NAME": "TIANMU-1 18", "OBJECT_ID": "2024-004D", "EPOCH": "2025-12-02T07:14:55.682304", "MEAN_MOTION": 15.24249023, "ECCENTRICITY": 0.00037711, "INCLINATION": 97.4618, "RA_OF_ASC_NODE": 157.8081, "ARG_OF_PERICENTER": 344.7155, "MEAN_ANOMALY": 15.3968, "EPHEMERIS_TYPE": 0, "CLASSIFICATION_TYPE": "U", "NORAD_CAT_ID": 58703, "ELEMENT_SET_NO": 999, "REV_AT_EPOCH": 10575, "BSTAR": 0.00033015453, "MEAN_MOTION_DOT": 7.987e-05, "MEAN_MOTION_DDOT": 0}, "tle": {"line1": "1 58703U 24004D   25336.30203336  .00007987  00000+0  33015-3 0  9997", "line2": "2 58703  97.4618 157.8081 0003771 344.7155  15.3968 15.24249023105759"}}, "geometry": {"type": "Point", "coordinates": [134.6330838826083, 71.77028216142193]}}, {"type": "Feature", "properties": {"norad_id": 58990, "name": "INSAT-3DS", "group": "weather", "lat": 0.02835795038701085, "lon": 1.8537251610514862, "alt_km": 35788.774774646794, "timestamp": "2025-12-02T13:52:16.919687+00:00", "meta": {"OBJECT_NAME": "INSAT-3DS", "OBJECT_ID": "2024-033A", "EPOCH": "2025-12-02T02:11:22.197696", "MEAN_MOTION": 1.00269802, "ECCENTRICITY": 0.00015795, "INCLINATION": 0.0134, "RA_OF_ASC_NODE": 265.382, "ARG_OF_PERICENTER": 348.0562, "MEAN_ANOMALY": 292.7221, "EPHEMERIS_TYPE": 0, "CLASSIFICATION_TYPE": "U", "NORAD_CAT_ID": 58990, "ELEMENT_SET_NO": 999, "REV_AT_EPOCH": 4509, "BSTAR": 0, "MEAN_MOTION_DOT": -1.35e-06, "MEAN_MOTION_DDOT": 0}, "tle": {"line1": "1 58990U 24033A   25336.09122914 -.00000135  00000+0  00000+0 0  9998", "line2": "2 58990   0.0134 265.3820 0001579 348.0562 292.7221  1.00269802 45098"}}, "geometry": {"type": "Point", "coordinates": [1.8537251610514862, 0.02835795038701085]}}, {"type": "Feature", "properties": {"norad_id": 59051, "name": "METEOR-M2 4", "group": "weather", "lat": 11.477470220760761, "lon": -68.12949562328711, "alt_km": 813.2823981903921, "timestamp": "2025-12-02T13:52:16.919701+00:00", "meta": {"OBJECT_NAME": "METEOR-M2 4", "OBJECT_ID": "2024-039A", "EPOCH": "2025-12-02T07:03:50.524992", "MEAN_MOTION": 14.22398651, "ECCENTRICITY": 0.00075921, "INCLINATION": 98.675, "RA_OF_ASC_NODE": 293.3678, "ARG_OF_PERICENTER": 27.5103, "MEAN_ANOMALY": 332.6476, "EPHEMERIS_TYPE": 0, "CLASSIFICATION_TYPE": "U", "NORAD_CAT_ID": 59051, "ELEMENT_SET_NO": 999, "REV_AT_EPOCH": 9127, "BSTAR": 4.7401353e-05, "MEAN_MOTION_DOT": 6.2e-07, "MEAN_MOTION_DDOT": 0}, "tle": {"line1": "1 59051U 24039A   25336.29433478  .00000062  00000+0  47401-4 0  9994", "line2": "2 59051  98.6750 293.3678 0007592  27.5103 332.6476 14.22398651 91277"}}, "geometry": {"type": "Point", "coordinates": [-68.12949562328711, 11.477470220760761]}}, {"type": "Feature", "properties": {"norad_id": 60133, "name": "GOES 19", "group": "weather", "lat": 0.009429207112926925, "lon": -155.46880226734817, "alt_km": 35786.45935543567, "timestamp": "2025-12-02T13:52:16.919712+00:00", "meta": {"OBJECT_NAME": "GOES 19", "OBJECT_ID": "2024-119A", "EPOCH": "2025-12-02T04:54:21.818880", "MEAN_MOTION": 1.00271361, "ECCENTRICITY": 0.0001197, "INCLINATION": 0.014, "RA_OF_ASC_NODE": 135.3253, "ARG_OF_PERICENTER": 162.0048, "MEAN_ANOMALY": 132.3957, "EPHEMERIS_TYPE": 0, "CLASSIFICATION_TYPE": "U", "NORAD_CAT_ID": 60133, "ELEMENT_SET_NO": 999, "REV_AT_EPOCH": 498, "BSTAR": 0, "MEAN_MOTION_DOT": -2.27e-06, "MEAN_MOTION_DDOT": 0}, "tle": {"line1": "1 60133U 24119A   25336.20441920 -.00000227  00000+0  00000+0 0  9991", "line2": "2 60133   0.0140 135.3253 0001197 162.0048 132.3957  1.00271361  4983"}}, "geometry": {"type": "Point", "coordinates": [-155.46880226734817, 0.009429207112926925]}}, {"type": "Feature", "properties": {"norad_id": 65815, "name": "FENGYUN 3H", "group": "weather", "lat": -17.99404457804868, "lon": -80.77399672031332, "alt_km": 830.5946448262894, "timestamp": "2025-12-02T13:52:16.919724+00:00", "meta": {"OBJECT_NAME": "FENGYUN 3H", "OBJECT_ID": "2025-219A", "EPOCH": "2025-12-02T05:30:03.045888", "MEAN_MOTION": 14.19899818, "ECCENTRICITY": 6.507e-05, "INCLINATION": 98.6568, "RA_OF_ASC_NODE": 276.0486, "ARG_OF_PERICENTER": 68.8978, "MEAN_ANOMALY": 291.2269, "EPHEMERIS_TYPE": 0, "CLASSIFICATION_TYPE": "U", "NORAD_CAT_ID": 65815, "ELEMENT_SET_NO": 999, "REV_AT_EPOCH": 943, "BSTAR": 8.3120108e-05, "MEAN_MOTION_DOT": 1.33e-06, "MEAN_MOTION_DDOT": 0}, "tle": {"line1": "1 65815U 25219A   25336.22920192  .00000133  00000+0  83120-4 0  9994", "line2": "2 65815  98.6568 276.0486 0000650  68.8978 291.2269 14.19899818  9434"}}, "geometry": {"type": "Point", "coordinates": [-80.77399672031332, -17.99404457804868]}}]}